{
  "type": "FeatureCollection",
  "features": [
    {
      "type": "Feature",
      "properties": {
        "norad_id": 66582,
        "name": "STARLINK-35746",
        "group": "last-30-days",
        "lat": -26.511234029611956,
        "lon": 8.182073543887986,
        "alt_km": 433.27995442747215,
        "timestamp": "2025-12-26T11:25:43.983832+00:00",
        "meta_object_name": "STARLINK-35746",
        "meta_object_id": "2025-268AB",
        "meta_epoch": "2025-12-26T04:00:01.998720",
        "meta_mean_motion": 15.4638153,
        "meta_eccentricity": 0.0001349,
        "meta_inclination": 43.0003,
        "meta_ra_of_asc_node": 42.3439,
        "meta_arg_of_pericenter": 271.1086,
        "meta_mean_anomaly": 123.7139,
        "meta_ephemeris_type": 0,
        "meta_classification_type": "U",
        "meta_norad_cat_id": 66582,
        "meta_element_set_no": 999,
        "meta_rev_at_epoch": 595,
        "meta_bstar": -0.045437,
        "meta_mean_motion_dot": -0.02046676,
        "meta_mean_motion_ddot": 0,
        "tle_line1": "1 66582U 25268AB  25360.16668980 -.02046676  00000+0 -45437-1 0  9996",
        "tle_line2": "2 66582  43.0003  42.3439 0001349 271.1086 123.7139 15.46381530  5957"
      },
      "geometry": {
        "type": "Point",
        "coordinates": [
          8.182073543887986,
          -26.511234029611956
        ]
      }
    },
    {
      "type": "Feature",
      "properties": {
        "norad_id": 66583,
        "name": "STARLINK-35941",
        "group": "last-30-days",
        "lat": -20.93370379874279,
        "lon": 16.285714711256876,
        "alt_km": 430.49206606142707,
        "timestamp": "2025-12-26T11:25:43.983842+00:00",
        "meta_object_name": "STARLINK-35941",
        "meta_object_id": "2025-268AC",
        "meta_epoch": "2025-12-26T04:00:01.998720",
        "meta_mean_motion": 15.47234558,
        "meta_eccentricity": 0.0001539,
        "meta_inclination": 43.0004,
        "meta_ra_of_asc_node": 42.3222,
        "meta_arg_of_pericenter": 269.2172,
        "meta_mean_anomaly": 133.9609,
        "meta_ephemeris_type": 0,
        "meta_classification_type": "U",
        "meta_norad_cat_id": 66583,
        "meta_element_set_no": 999,
        "meta_rev_at_epoch": 600,
        "meta_bstar": -0.044699,
        "meta_mean_motion_dot": -0.02071425,
        "meta_mean_motion_ddot": 0,
        "tle_line1": "1 66583U 25268AC  25360.16668980 -.02071425  00000+0 -44699-1 0  9996",
        "tle_line2": "2 66583  43.0004  42.3222 0001539 269.2172 133.9609 15.47234558  6004"
      },
      "geometry": {
        "type": "Point",
        "coordinates": [
          16.285714711256876,
          -20.93370379874279
        ]
      }
    },
    {
      "type": "Feature",
      "properties": {
        "norad_id": 66584,
        "name": "STARLINK-35939",
        "group": "last-30-days",
        "lat": -15.441892242893223,
        "lon": 23.258827171015813,
        "alt_km": 427.78137176100336,
        "timestamp": "2025-12-26T11:25:43.983851+00:00",
        "meta_object_name": "STARLINK-35939",
        "meta_object_id": "2025-268AD",
        "meta_epoch": "2025-12-26T04:00:01.998720",
        "meta_mean_motion": 15.48043223,
        "meta_eccentricity": 0.0001228,
        "meta_inclination": 43,
        "meta_ra_of_asc_node": 42.3044,
        "meta_arg_of_pericenter": 273.4907,
        "meta_mean_anomaly": 137.4047,
        "meta_ephemeris_type": 0,
        "meta_classification_type": "U",
        "meta_norad_cat_id": 66584,
        "meta_element_set_no": 999,
        "meta_rev_at_epoch": 600,
        "meta_bstar": -0.043249,
        "meta_mean_motion_dot": -0.02062934,
        "meta_mean_motion_ddot": 0,
        "tle_line1": "1 66584U 25268AD  25360.16668980 -.02062934  00000+0 -43249-1 0  9992",
        "tle_line2": "2 66584  43.0000  42.3044 0001228 273.4907 137.4047 15.48043223  6004"
      },
      "geometry": {
        "type": "Point",
        "coordinates": [
          23.258827171015813,
          -15.441892242893223
        ]
      }
    },
    {
      "type": "Feature",
      "properties": {
        "norad_id": 66585,
        "name": "STARLINK-35963",
        "group": "last-30-days",
        "lat": 10.168349319054895,
        "lon": -150.1743659279381,
        "alt_km": 464.28450800123574,
        "timestamp": "2025-12-26T11:25:43.983860+00:00",
        "meta_object_name": "STARLINK-35963",
        "meta_object_id": "2025-268AE",
        "meta_epoch": "2025-12-26T04:00:01.998720",
        "meta_mean_motion": 15.34745728,
        "meta_eccentricity": 9.64e-05,
        "meta_inclination": 43.0006,
        "meta_ra_of_asc_node": 42.6887,
        "meta_arg_of_pericenter": 274.5202,
        "meta_mean_anomaly": 339.0431,
        "meta_ephemeris_type": 0,
        "meta_classification_type": "U",
        "meta_norad_cat_id": 66585,
        "meta_element_set_no": 999,
        "meta_rev_at_epoch": 605,
        "meta_bstar": -0.064132,
        "meta_mean_motion_dot": -0.01965773,
        "meta_mean_motion_ddot": 0,
        "tle_line1": "1 66585U 25268AE  25360.16668980 -.01965773  00000+0 -64132-1 0  9999",
        "tle_line2": "2 66585  43.0006  42.6887 0000964 274.5202 339.0431 15.34745728  6051"
      },
      "geometry": {
        "type": "Point",
        "coordinates": [
          -150.1743659279381,
          10.168349319054895
        ]
      }
    },
    {
      "type": "Feature",
      "properties": {
        "norad_id": 66586,
        "name": "TJS-21",
        "group": "last-30-days",
        "lat": 60.51152413816978,
        "lon": -82.12336888805243,
        "alt_km": 35876.749241513666,
        "timestamp": "2025-12-26T11:25:43.983872+00:00",
        "meta_object_name": "TJS-21",
        "meta_object_id": "2025-269A",
        "meta_epoch": "2025-12-18T16:58:10.473888",
        "meta_mean_motion": 2.00580748,
        "meta_eccentricity": 0.6806869,
        "meta_inclination": 63.2733,
        "meta_ra_of_asc_node": 161.7218,
        "meta_arg_of_pericenter": 269.7428,
        "meta_mean_anomaly": 18.6663,
        "meta_ephemeris_type": 0,
        "meta_classification_type": "U",
        "meta_norad_cat_id": 66586,
        "meta_element_set_no": 999,
        "meta_rev_at_epoch": 55,
        "meta_bstar": -0.059507049,
        "meta_mean_motion_dot": 1.084e-05,
        "meta_mean_motion_ddot": 0,
        "tle_line1": "1 66586U 25269A   25352.70706567  .00001084  00000+0 -59507-1 0  9990",
        "tle_line2": "2 66586  63.2733 161.7218 6806869 269.7428  18.6663  2.00580748   558"
      },
      "geometry": {
        "type": "Point",
        "coordinates": [
          -82.12336888805243,
          60.51152413816978
        ]
      }
    },
    {
      "type": "Feature",
      "properties": {
        "norad_id": 66588,
        "name": "STARLINK-36076",
        "group": "last-30-days",
        "lat": -18.456673537666894,
        "lon": 92.63955991310678,
        "alt_km": 445.26570213180094,
        "timestamp": "2025-12-26T11:25:43.983885+00:00",
        "meta_object_name": "STARLINK-36076",
        "meta_object_id": "2025-270A",
        "meta_epoch": "2025-12-25T15:19:22.837728",
        "meta_mean_motion": 15.40737993,
        "meta_eccentricity": 5.254e-05,
        "meta_inclination": 42.9959,
        "meta_ra_of_asc_node": 118.4597,
        "meta_arg_of_pericenter": 283.3048,
        "meta_mean_anomaly": 76.775,
        "meta_ephemeris_type": 0,
        "meta_classification_type": "U",
        "meta_norad_cat_id": 66588,
        "meta_element_set_no": 999,
        "meta_rev_at_epoch": 633,
        "meta_bstar": 0.0010963954,
        "meta_mean_motion_dot": 0.00045829,
        "meta_mean_motion_ddot": 0,
        "tle_line1": "1 66588U 25270A   25359.63845877  .00045829  00000+0  10964-2 0  9990",
        "tle_line2": "2 66588  42.9959 118.4597 0000525 283.3048  76.7750 15.40737993  6330"
      },
      "geometry": {
        "type": "Point",
        "coordinates": [
          92.63955991310678,
          -18.456673537666894
        ]
      }
    },
    {
      "type": "Feature",
      "properties": {
        "norad_id": 66589,
        "name": "STARLINK-35447",
        "group": "last-30-days",
        "lat": 40.36066496598188,
        "lon": 179.1729634518659,
        "alt_km": 438.23662176476773,
        "timestamp": "2025-12-26T11:25:43.983894+00:00",
        "meta_object_name": "STARLINK-35447",
        "meta_object_id": "2025-270B",
        "meta_epoch": "2025-12-25T14:53:33.760896",
        "meta_mean_motion": 15.4069884,
        "meta_eccentricity": 0.0001173,
        "meta_inclination": 43.0008,
        "meta_ra_of_asc_node": 118.3206,
        "meta_arg_of_pericenter": 257.0782,
        "meta_mean_anomaly": 102.9943,
        "meta_ephemeris_type": 0,
        "meta_classification_type": "U",
        "meta_norad_cat_id": 66589,
        "meta_element_set_no": 999,
        "meta_rev_at_epoch": 644,
        "meta_bstar": 0.00080611,
        "meta_mean_motion_dot": 0.00033516,
        "meta_mean_motion_ddot": 0,
        "tle_line1": "1 66589U 25270B   25359.62052964  .00033516  00000+0  80611-3 0  9994",
        "tle_line2": "2 66589  43.0008 118.3206 0001173 257.0782 102.9943 15.40698840  6442"
      },
      "geometry": {
        "type": "Point",
        "coordinates": [
          179.1729634518659,
          40.36066496598188
        ]
      }
    }
  ]
}